<?xml version="1.0" encoding="UTF-8" standalone="no" ?>
<q:quakeml xmlns:q="http://quakeml.org/xmlns/quakeml/1.2" xmlns="http://quakeml.org/xmlns/bed/1.2" xmlns:anssevent="http://anss.org/xmlns/event/0.1" xmlns:catalog="http://anss.org/xmlns/catalog/0.1" xmlns:tensor="http://anss.org/xmlns/tensor/0.1">

  <eventParameters xmlns="http://quakeml.org/xmlns/bed/1.2" publicID="quakeml:us.anss.org/eventparameters/6000kawn/1683735567">
    <comment>
      <text>HYDRA - us</text>
    </comment>
    <event catalog:dataid="us6000kawn" catalog:datasource="us" catalog:eventid="6000kawn" catalog:eventsource="us" publicID="quakeml:us.anss.org/event/6000kawn">
      <description>
        <text>Tonga</text>
        <type>Flinn-Engdahl region</type>
      </description>
      <description>
        <text>84.6 km (52.6 miles) WNW of Hihifo, Niuas, Tonga (pop. 815)
356.0 km (221.2 miles) WSW of Apia, Tuamasaga, Samoa (pop. 40407)
436.1 km (271.0 miles) WSW of Pago Pago, Eastern District, American Samoa (pop. 11500)
614.0 km (381.5 miles) N of Nuku`alofa, Tongatapu, Tonga (pop. 22400)
661.5 km (411.0 miles) E of Labasa, Northern, Fiji (pop. 27949)
</text>
        <type>nearest cities</type>
      </description>
      <focalMechanism catalog:dataid="us_6000kawn_mww" catalog:datasource="us" publicID="quakeml:us.anss.org/focalmechanism/6000kawn/mww">
        <waveformID channelCode="HHE" locationCode="10" networkCode="NZ" stationCode="BFZ" tensor:MTChanOffset="0" tensor:MTChanWaveformFit="0.77" tensor:MTChanWeight="1"/>
        <waveformID channelCode="HHZ" locationCode="10" networkCode="NZ" stationCode="BFZ" tensor:MTChanOffset="0" tensor:MTChanWaveformFit="0.91" tensor:MTChanWeight="1"/>
        <waveformID channelCode="LHE" locationCode="00" networkCode="G" stationCode="CAN" tensor:MTChanOffset="0" tensor:MTChanWaveformFit="0.99" tensor:MTChanWeight="1"/>
        <waveformID channelCode="LHZ" locationCode="00" networkCode="G" stationCode="CAN" tensor:MTChanOffset="0" tensor:MTChanWaveformFit="0.99" tensor:MTChanWeight="1"/>
        <waveformID channelCode="LH2" locationCode="10" networkCode="IU" stationCode="CTAO" tensor:MTChanOffset="0" tensor:MTChanWaveformFit="1" tensor:MTChanWeight="1"/>
        <waveformID channelCode="LHZ" locationCode="10" networkCode="IU" stationCode="CTAO" tensor:MTChanOffset="0" tensor:MTChanWaveformFit="0.98" tensor:MTChanWeight="1"/>
        <waveformID channelCode="HHZ" locationCode="10" networkCode="NZ" stationCode="CTZ" tensor:MTChanOffset="0" tensor:MTChanWaveformFit="0.92" tensor:MTChanWeight="1"/>
        <waveformID channelCode="LHZ" locationCode="00" networkCode="IU" stationCode="FUNA" tensor:MTChanOffset="0" tensor:MTChanWaveformFit="0.95" tensor:MTChanWeight="1"/>
        <waveformID channelCode="LHE" locationCode="10" networkCode="NZ" stationCode="HIZ" tensor:MTChanOffset="0" tensor:MTChanWaveformFit="0.99" tensor:MTChanWeight="1"/>
        <waveformID channelCode="LHZ" locationCode="10" networkCode="NZ" stationCode="HIZ" tensor:MTChanOffset="0" tensor:MTChanWaveformFit="0.99" tensor:MTChanWeight="1"/>
        <waveformID channelCode="LHZ" locationCode="00" networkCode="IU" stationCode="HNR" tensor:MTChanOffset="0" tensor:MTChanWaveformFit="0.99" tensor:MTChanWeight="1"/>
        <waveformID channelCode="BHE" locationCode="00" networkCode="ND" stationCode="KOUNC" tensor:MTChanOffset="0" tensor:MTChanWaveformFit="0.92" tensor:MTChanWeight="1"/>
        <waveformID channelCode="BHN" locationCode="00" networkCode="ND" stationCode="KOUNC" tensor:MTChanOffset="0" tensor:MTChanWaveformFit="0.96" tensor:MTChanWeight="1"/>
        <waveformID channelCode="BHZ" locationCode="00" networkCode="ND" stationCode="KOUNC" tensor:MTChanOffset="0" tensor:MTChanWaveformFit="0.98" tensor:MTChanWeight="1"/>
        <waveformID channelCode="BH2" locationCode="00" networkCode="II" stationCode="MSVF" tensor:MTChanOffset="0" tensor:MTChanWaveformFit="0.83" tensor:MTChanWeight="1"/>
        <waveformID channelCode="BHZ" locationCode="00" networkCode="II" stationCode="MSVF" tensor:MTChanOffset="0" tensor:MTChanWaveformFit="0.99" tensor:MTChanWeight="1"/>
        <waveformID channelCode="LHE" locationCode="10" networkCode="NZ" stationCode="MXZ" tensor:MTChanOffset="0" tensor:MTChanWaveformFit="0.74" tensor:MTChanWeight="1"/>
        <waveformID channelCode="LHE" locationCode="10" networkCode="NZ" stationCode="OUZ" tensor:MTChanOffset="0" tensor:MTChanWaveformFit="0.94" tensor:MTChanWeight="1"/>
        <waveformID channelCode="LHZ" locationCode="10" networkCode="NZ" stationCode="OUZ" tensor:MTChanOffset="0" tensor:MTChanWaveformFit="0.95" tensor:MTChanWeight="1"/>
        <waveformID channelCode="BHE" locationCode="00" networkCode="ND" stationCode="PINNC" tensor:MTChanOffset="0" tensor:MTChanWaveformFit="0.92" tensor:MTChanWeight="1"/>
        <waveformID channelCode="BHN" locationCode="00" networkCode="ND" stationCode="PINNC" tensor:MTChanOffset="0" tensor:MTChanWaveformFit="0.99" tensor:MTChanWeight="1"/>
        <waveformID channelCode="BHZ" locationCode="00" networkCode="ND" stationCode="PINNC" tensor:MTChanOffset="0" tensor:MTChanWaveformFit="0.91" tensor:MTChanWeight="1"/>
        <waveformID channelCode="LH2" locationCode="10" networkCode="IU" stationCode="PMG" tensor:MTChanOffset="0" tensor:MTChanWaveformFit="0.95" tensor:MTChanWeight="1"/>
        <waveformID channelCode="LHZ" locationCode="10" networkCode="IU" stationCode="PMG" tensor:MTChanOffset="0" tensor:MTChanWaveformFit="0.99" tensor:MTChanWeight="1"/>
        <waveformID channelCode="LHE" locationCode="00" networkCode="G" stationCode="PPTF" tensor:MTChanOffset="0" tensor:MTChanWaveformFit="0.97" tensor:MTChanWeight="1"/>
        <waveformID channelCode="LHN" locationCode="00" networkCode="G" stationCode="PPTF" tensor:MTChanOffset="0" tensor:MTChanWaveformFit="0.97" tensor:MTChanWeight="1"/>
        <waveformID channelCode="LHZ" locationCode="00" networkCode="G" stationCode="PPTF" tensor:MTChanOffset="0" tensor:MTChanWaveformFit="0.99" tensor:MTChanWeight="1"/>
        <waveformID channelCode="HHZ" locationCode="10" networkCode="NZ" stationCode="QRZ" tensor:MTChanOffset="0" tensor:MTChanWaveformFit="0.82" tensor:MTChanWeight="1"/>
        <waveformID channelCode="LHZ" locationCode="00" networkCode="IU" stationCode="RAR" tensor:MTChanOffset="0" tensor:MTChanWaveformFit="0.99" tensor:MTChanWeight="1"/>
        <waveformID channelCode="BHE" locationCode="00" networkCode="G" stationCode="TAOE" tensor:MTChanOffset="0" tensor:MTChanWaveformFit="0.97" tensor:MTChanWeight="1"/>
        <waveformID channelCode="BHZ" locationCode="00" networkCode="G" stationCode="TAOE" tensor:MTChanOffset="0" tensor:MTChanWaveformFit="0.85" tensor:MTChanWeight="1"/>
        <waveformID channelCode="LHE" locationCode="10" networkCode="NZ" stationCode="THZ" tensor:MTChanOffset="0" tensor:MTChanWaveformFit="0.74" tensor:MTChanWeight="1"/>
        <momentTensor publicID="quakeml:us.anss.org/momenttensor/6000kawn/mww">
          <derivedOriginID>quakeml:us.anss.org/origin/6000kawn/mww</derivedOriginID>
          <momentMagnitudeID>quakeml:us.anss.org/magnitude/6000kawn/mww</momentMagnitudeID>
          <scalarMoment>
            <value>2.68e+20</value>
          </scalarMoment>
          <tensor>
            <Mrr>
              <value>-2.3917e+20</value>
            </Mrr>
            <Mtt>
              <value>1.3179e+20</value>
            </Mtt>
            <Mpp>
              <value>1.0738e+20</value>
            </Mpp>
            <Mrt>
              <value>2.884e+19</value>
            </Mrt>
            <Mrp>
              <value>-9.337e+19</value>
            </Mrp>
            <Mtp>
              <value>1.388e+20</value>
            </Mtp>
          </tensor>
          <doubleCouple>0.9222</doubleCouple>
          <clvd>0.0778</clvd>
          <sourceTimeFunction>
            <type>triangle</type>
            <duration>29.76</duration>
            <riseTime>14.88</riseTime>
            <decayTime>14.88</decayTime>
          </sourceTimeFunction>
        </momentTensor>
        <triggeringOriginID>quakeml:us.anss.org/origin/6000kawn/mww_trigger</triggeringOriginID>
        <nodalPlanes>
          <nodalPlane1>
            <strike>
              <value>245.58</value>
            </strike>
            <dip>
              <value>43.28</value>
            </dip>
            <rake>
              <value>-61.73</value>
            </rake>
          </nodalPlane1>
          <nodalPlane2>
            <strike>
              <value>29.12</value>
            </strike>
            <dip>
              <value>52.86</value>
            </dip>
            <rake>
              <value>-114.04</value>
            </rake>
          </nodalPlane2>
        </nodalPlanes>
        <principalAxes>
          <tAxis>
            <azimuth>
              <value>136</value>
            </azimuth>
            <plunge>
              <value>5</value>
            </plunge>
            <length>
              <value>2.62605e+20</value>
            </length>
          </tAxis>
          <pAxis>
            <azimuth>
              <value>240</value>
            </azimuth>
            <plunge>
              <value>70</value>
            </plunge>
            <length>
              <value>-2.73235e+20</value>
            </length>
          </pAxis>
          <nAxis>
            <azimuth>
              <value>44</value>
            </azimuth>
            <plunge>
              <value>19</value>
            </plunge>
            <length>
              <value>1.06295e+19</value>
            </length>
          </nAxis>
        </principalAxes>
        <evaluationMode>manual</evaluationMode>
        <evaluationStatus>preliminary</evaluationStatus>
        <creationInfo>
          <agencyID>us</agencyID>
          <agencyURI>smi:anss.org/metadata/agencyid/us</agencyURI>
          <creationTime>2023-05-10T16:14:55Z</creationTime>
        </creationInfo>
        <tensor:waveformFit xmlns="">0.93</tensor:waveformFit>
      </focalMechanism>
      <amplitude publicID="quakeml:us.anss.org/amp/ae_113a_hhz_--/mb">
        <genericAmplitude>
          <value>1.77555e-06</value>
        </genericAmplitude>
        <type>AMB</type>
        <unit>m</unit>
        <period>
          <value>1.7000</value>
        </period>
        <timeWindow>
          <begin>0.00</begin>
          <end>191.37</end>
          <reference>2023-05-10T16:13:01.66Z</reference>
        </timeWindow>
        <waveformID channelCode="HHZ" locationCode="--" networkCode="AE" stationCode="113A"/>
        <scalingTime>
          <value>2023-05-10T16:13:27.16Z</value>
        </scalingTime>
        <magnitudeHint>mb</magnitudeHint>
        <evaluationMode>automatic</evaluationMode>
      </amplitude>
      <amplitude publicID="quakeml:us.anss.org/amp/sc_121a_bhz_--/mb">
        <genericAmplitude>
          <value>8.571e-07</value>
        </genericAmplitude>
        <type>AMB</type>
        <unit>m</unit>
        <period>
          <value>0.9500</value>
        </period>
        <timeWindow>
          <begin>0.00</begin>
          <end>202.76</end>
          <reference>2023-05-10T16:13:26.63Z</reference>
        </timeWindow>
        <waveformID channelCode="BHZ" locationCode="--" networkCode="SC" stationCode="121A"/>
        <scalingTime>
          <value>2023-05-10T16:13:52.055Z</value>
        </scalingTime>
        <magnitudeHint>mb</magnitudeHint>
        <evaluationMode>automatic</evaluationMode>
      </amplitude>
      <amplitude publicID="quakeml:us.anss.org/amp/ae_214a_hhz_--/mb">
        <genericAmplitude>
          <value>5.6785e-07</value>
        </genericAmplitude>
        <type>AMB</type>
        <unit>m</unit>
        <period>
          <value>1.0400</value>
        </period>
        <timeWindow>
          <begin>0.00</begin>
          <end>192.37</end>
          <reference>2023-05-10T16:13:03.27Z</reference>
        </timeWindow>
        <waveformID channelCode="HHZ" locationCode="--" networkCode="AE" stationCode="214A"/>
        <scalingTime>
          <value>2023-05-10T16:13:31.87Z</value>
        </scalingTime>
        <magnitudeHint>mb</magnitudeHint>
        <evaluationMode>automatic</evaluationMode>
      </amplitude>
      <amplitude publicID="quakeml:us.anss.org/amp/ci_acp_bhz_--/mb">
        <genericAmplitude>
          <value>1.07405e-06</value>
        </genericAmplitude>
        <type>AMB</type>
        <unit>m</unit>
        <period>
          <value>1.2000</value>
        </period>
        <timeWindow>
          <begin>0.00</begin>
          <end>186.36</end>
          <reference>2023-05-10T16:12:51.94Z</reference>
        </timeWindow>
        <waveformID channelCode="BHZ" locationCode="--" networkCode="CI" stationCode="ACP"/>
        <scalingTime>
          <value>2023-05-10T16:13:19.49Z</value>
        </scalingTime>
        <magnitudeHint>mb</magnitudeHint>
        <evaluationMode>automatic</evaluationMode>
      </amplitude>
      <amplitude publicID="quakeml:us.anss.org/amp/bk_adam_bhz_00/mb">
        <genericAmplitude>
          <value>1.59285e-06</value>
        </genericAmplitude>
        <type>AMB</type>
        <unit>m</unit>
        <period>
          <value>1.2000</value>
        </period>
        <timeWindow>
          <begin>0.00</begin>
          <end>184.04</end>
          <reference>2023-05-10T16:12:47.46Z</reference>
        </timeWindow>
        <waveformID channelCode="BHZ" locationCode="00" networkCode="BK" stationCode="ADAM"/>
        <scalingTime>
          <value>2023-05-10T16:13:16.285Z</value>
        </scalingTime>
        <magnitudeHint>mb</magnitudeHint>
        <evaluationMode>automatic</evaluationMode>
      </amplitude>
      <amplitude publicID="quakeml:us.anss.org/amp/uo_adel_hhz_--/mb">
        <genericAmplitude>
          <value>1.63175e-06</value>
        </genericAmplitude>
        <type>AMB</type>
        <unit>m</unit>
        <period>
          <value>1.0800</value>
        </period>
        <timeWindow>
          <begin>0.00</begin>
          <end>193.50</end>
          <reference>2023-05-10T16:13:07.74Z</reference>
        </timeWindow>
        <waveformID channelCode="HHZ" locationCode="--" networkCode="UO" stationCode="ADEL"/>
        <scalingTime>
          <value>2023-05-10T16:13:33.05Z</value>
        </scalingTime>
        <magnitudeHint>mb</magnitudeHint>
        <evaluationMode>automatic</evaluationMode>
      </amplitude>
      <amplitude publicID="quakeml:us.anss.org/amp/iu_adk_bhz_10/mb">
        <genericAmplitude>
          <value>2.53335e-06</value>
        </genericAmplitude>
        <type>AMB</type>
        <unit>m</unit>
        <period>
          <value>1.3000</value>
        </period>
        <timeWindow>
          <begin>0.00</begin>
          <end>172.19</end>
          <reference>2023-05-10T16:12:11.21Z</reference>
        </timeWindow>
        <pickID>quakeml:us.anss.org/pick/6000kawn/us_a7814_bpid-6003473935</pickID>
        <waveformID channelCode="BHZ" locationCode="10" networkCode="IU" stationCode="ADK"/>
        <scalingTime>
          <value>2023-05-10T16:12:36.335Z</value>
        </scalingTime>
        <magnitudeHint>mb</magnitudeHint>
        <evaluationMode>automatic</evaluationMode>
      </amplitude>
      <amplitude publicID="quakeml:us.anss.org/amp/nc_afd_hhz_--/mb">
        <genericAmplitude>
          <value>7.718e-07</value>
        </genericAmplitude>
        <type>AMB</type>
        <unit>m</unit>
        <period>
          <value>1.0800</value>
        </period>
        <timeWindow>
          <begin>0.00</begin>
          <end>187.60</end>
          <reference>2023-05-10T16:12:52.13Z</reference>
        </timeWindow>
        <pickID>quakeml:us.anss.org/pick/6000kawn/us_a7814_bpid-6003473945</pickID>
        <waveformID channelCode="HHZ" locationCode="--" networkCode="NC" stationCode="AFD"/>
        <scalingTime>
          <value>2023-05-10T16:13:17.83Z</value>
        </scalingTime>
        <magnitudeHint>mb</magnitudeHint>
        <evaluationMode>automatic</evaluationMode>
      </amplitude>
      <amplitude publicID="quakeml:us.anss.org/amp/us_ahid_bhz_00/mb">
        <genericAmplitude>
          <value>3.06005e-06</value>
        </genericAmplitude>
        <type>AMB</type>
        <unit>m</unit>
        <period>
          <value>1.6500</value>
        </period>
        <timeWindow>
          <begin>0.00</begin>
          <end>211.15</end>
          <reference>2023-05-10T16:13:38.1Z</reference>
        </timeWindow>
        <waveformID channelCode="BHZ" locationCode="00" networkCode="US" stationCode="AHID"/>
        <scalingTime>
          <value>2023-05-10T16:14:04.6Z</value>
        </scalingTime>
        <magnitudeHint>mb</magnitudeHint>
        <evaluationMode>automatic</evaluationMode>
      </amplitude>
      <amplitude publicID="quakeml:us.anss.org/amp/hv_aind_hhz_--/mb">
        <genericAmplitude>
          <value>1.72065e-06</value>
        </genericAmplitude>
        <type>AMB</type>
        <unit>m</unit>
        <period>
          <value>0.9000</value>
        </period>
        <timeWindow>
          <begin>0.00</begin>
          <end>114.00</end>
          <reference>2023-05-10T16:08:51.64Z</reference>
        </timeWindow>
        <waveformID channelCode="HHZ" locationCode="--" networkCode="HV" stationCode="AIND"/>
        <scalingTime>
          <value>2023-05-10T16:09:26.24Z</value>
        </scalingTime>
        <magnitudeHint>mb</magnitudeHint>
        <evaluationMode>automatic</evaluationMode>
      </amplitude>
      <amplitude publicID="quakeml:us.anss.org/amp/tx_alpn_hhz_00/mb">
        <genericAmplitude>
          <value>8.4585e-07</value>
        </genericAmplitude>
        <type>AMB</type>
        <unit>m</unit>
        <period>
          <value>0.8900</value>
        </period>
        <timeWindow>
          <begin>0.00</begin>
          <end>210.09</end>
          <reference>2023-05-10T16:13:38.51Z</reference>
        </timeWindow>
        <waveformID channelCode="HHZ" locationCode="00" networkCode="TX" stationCode="ALPN"/>
        <scalingTime>
          <value>2023-05-10T16:14:03.845Z</value>
        </scalingTime>
        <magnitudeHint>mb</magnitudeHint>
        <evaluationMode>automatic</evaluationMode>
      </amplitude>
      <amplitude publicID="quakeml:us.anss.org/amp/av_amka_bhz_10/mb">
        <genericAmplitude>
          <value>1.48315e-06</value>
        </genericAmplitude>
        <type>AMB</type>
        <unit>m</unit>
        <period>
          <value>1.0400</value>
        </period>
        <timeWindow>
          <begin>0.00</begin>
          <end>171.68</end>
          <reference>2023-05-10T16:12:09.02Z</reference>
        </timeWindow>
        <pickID>quakeml:us.anss.org/pick/6000kawn/us_a7814_bpid-6003473934</pickID>
        <waveformID channelCode="BHZ" locationCode="10" networkCode="AV" stationCode="AMKA"/>
        <scalingTime>
          <value>2023-05-10T16:12:36.04Z</value>
        </scalingTime>
        <magnitudeHint>mb</magnitudeHint>
        <evaluationMode>automatic</evaluationMode>
      </amplitude>
      <amplitude publicID="quakeml:us.anss.org/amp/ak_anm_bhz_--/mb">
        <genericAmplitude>
          <value>1.65105e-06</value>
        </genericAmplitude>
        <type>AMB</type>
        <unit>m</unit>
        <period>
          <value>1.0400</value>
        </period>
        <timeWindow>
          <begin>0.00</begin>
          <end>205.30</end>
          <reference>2023-05-10T16:13:27.99Z</reference>
        </timeWindow>
        <waveformID channelCode="BHZ" locationCode="--" networkCode="AK" stationCode="ANM"/>
        <scalingTime>
          <value>2023-05-10T16:13:56.19Z</value>
        </scalingTime>
        <magnitudeHint>mb</magnitudeHint>
        <evaluationMode>automatic</evaluationMode>
      </amplitude>
      <amplitude publicID="quakeml:us.anss.org/amp/iu_anmo_bhz_10/mb">
        <genericAmplitude>
          <value>2.6341e-06</value>
        </genericAmplitude>
